[{"OBJECT_NAME":"ONEWEB-0431","OBJECT_ID":"2022-012J","EPOCH":"2025-11-11T06:51:58.311648","MEAN_MOTION":13.10370629,"ECCENTRICITY":0.00021437,"INCLINATION":87.8799,"RA_OF_ASC_NODE":79.6934,"ARG_OF_PERICENTER":90.8104,"MEAN_ANOMALY":269.3269,"EPHEMERIS_TYPE":0,"CLASSIFICATION_TYPE":"U","NORAD_CAT_ID":51630,"ELEMENT_SET_NO":999,"REV_AT_EPOCH":18080,"BSTAR":-0.00038922007,"MEAN_MOTION_DOT":-1.23e-6,"MEAN_MOTION_DDOT":0},{"OBJECT_NAME":"ONEWEB-0434","OBJECT_ID":"2022-012K","EPOCH":"2025-11-11T02:38:48.789024","MEAN_MOTION":13.10373753,"ECCENTRICITY":9.69e-5,"INCLINATION":87.8792,"RA_OF_ASC_NODE":79.7667,"ARG_OF_PERICENTER":111.1598,"MEAN_ANOMALY":248.9633,"EPHEMERIS_TYPE":0,"CLASSIFICATION_TYPE":"U","NORAD_CAT_ID":51631,"ELEMENT_SET_NO":999,"REV_AT_EPOCH":18076,"BSTAR":0.0020686232,"MEAN_MOTION_DOT":7.35e-6,"MEAN_MOTION_DDOT":0},{"OBJECT_NAME":"ONEWEB-0435","OBJECT_ID":"2022-012L","EPOCH":"2025-11-11T06:30:40.211136","MEAN_MOTION":13.10372594,"ECCENTRICITY":0.0001902,"INCLINATION":87.8792,"RA_OF_ASC_NODE":79.7251,"ARG_OF_PERICENTER":108.4056,"MEAN_ANOMALY":251.7278,"EPHEMERIS_TYPE":0,"CLASSIFICATION_TYPE":"U","NORAD_CAT_ID":51632,"ELEMENT_SET_NO":999,"REV_AT_EPOCH":18077,"BSTAR":0.0019718995,"MEAN_MOTION_DOT":7.01e-6,"MEAN_MOTION_DDOT":0},{"OBJECT_NAME":"ONEWEB-0436","OBJECT_ID":"2022-012M","EPOCH":"2025-11-11T06:36:34.334496","MEAN_MOTION":13.17649373,"ECCENTRICITY":0.00019261,"INCLINATION":87.9137,"RA_OF_ASC_NODE":49.1656,"ARG_OF_PERICENTER":102.3433,"MEAN_ANOMALY":257.7915,"EPHEMERIS_TYPE":0,"CLASSIFICATION_TYPE":"U","NORAD_CAT_ID":51633,"ELEMENT_SET_NO":999,"REV_AT_EPOCH":18498,"BSTAR":0.00023147309,"MEAN_MOTION_DOT":1.03e-6,"MEAN_MOTION_DDOT":0},{"OBJECT_NAME":"ONEWEB-0438","OBJECT_ID":"2022-012N","EPOCH":"2025-11-11T06:06:46.242432","MEAN_MOTION":13.10376121,"ECCENTRICITY":0.00013742,"INCLINATION":87.8797,"RA_OF_ASC_NODE":79.7291,"ARG_OF_PERICENTER":100.4021,"MEAN_ANOMALY":259.7262,"EPHEMERIS_TYPE":0,"CLASSIFICATION_TYPE":"U","NORAD_CAT_ID":51634,"ELEMENT_SET_NO":999,"REV_AT_EPOCH":18080,"BSTAR":0.0016828742,"MEAN_MOTION_DOT":6.0e-6,"MEAN_MOTION_DDOT":0},{"OBJECT_NAME":"ONEWEB-0439","OBJECT_ID":"2022-012P","EPOCH":"2025-11-11T06:11:33.264960","MEAN_MOTION":13.10375057,"ECCENTRICITY":0.00016245,"INCLINATION":87.8791,"RA_OF_ASC_NODE":79.7173,"ARG_OF_PERICENTER":101.6731,"MEAN_ANOMALY":258.4579,"EPHEMERIS_TYPE":0,"CLASSIFICATION_TYPE":"U","NORAD_CAT_ID":51635,"ELEMENT_SET_NO":999,"REV_AT_EPOCH":18078,"BSTAR":0.0018698521,"MEAN_MOTION_DOT":6.65e-6,"MEAN_MOTION_DDOT":0},{"OBJECT_NAME":"ONEWEB-0442","OBJECT_ID":"2022-012Q","EPOCH":"2025-11-11T06:25:38.905824","MEAN_MOTION":13.17650849,"ECCENTRICITY":0.00011383,"INCLINATION":87.9132,"RA_OF_ASC_NODE":49.2179,"ARG_OF_PERICENTER":92.137,"MEAN_ANOMALY":267.9891,"EPHEMERIS_TYPE":0,"CLASSIFICATION_TYPE":"U","NORAD_CAT_ID":51636,"ELEMENT_SET_NO":999,"REV_AT_EPOCH":18497,"BSTAR":0.00016360802,"MEAN_MOTION_DOT":7.6e-7,"MEAN_MOTION_DDOT":0},{"OBJECT_NAME":"ONEWEB-0443","OBJECT_ID":"2022-012R","EPOCH":"2025-11-11T06:53:35.656800","MEAN_MOTION":13.17651455,"ECCENTRICITY":0.00015139,"INCLINATION":87.9128,"RA_OF_ASC_NODE":49.2198,"ARG_OF_PERICENTER":111.4357,"MEAN_ANOMALY":248.6936,"EPHEMERIS_TYPE":0,"CLASSIFICATION_TYPE":"U","NORAD_CAT_ID":51637,"ELEMENT_SET_NO":999,"REV_AT_EPOCH":18502,"BSTAR":0.00022776831,"MEAN_MOTION_DOT":1.01e-6,"MEAN_MOTION_DDOT":0},{"OBJECT_NAME":"ONEWEB-0444","OBJECT_ID":"2022-012S","EPOCH":"2025-11-11T07:47:09.861216","MEAN_MOTION":13.10376275,"ECCENTRICITY":0.00015731,"INCLINATION":87.8793,"RA_OF_ASC_NODE":79.7028,"ARG_OF_PERICENTER":100.9882,"MEAN_ANOMALY":259.1423,"EPHEMERIS_TYPE":0,"CLASSIFICATION_TYPE":"U","NORAD_CAT_ID":51638,"ELEMENT_SET_NO":999,"REV_AT_EPOCH":18080,"BSTAR":0.0010225672,"MEAN_MOTION_DOT":3.7e-6,"MEAN_MOTION_DDOT":0},{"OBJECT_NAME":"ONEWEB-0445","OBJECT_ID":"2022-012T","EPOCH":"2025-11-11T06:28:17.736672","MEAN_MOTION":13.10371382,"ECCENTRICITY":0.00015136,"INCLINATION":87.8804,"RA_OF_ASC_NODE":79.6761,"ARG_OF_PERICENTER":92.6959,"MEAN_ANOMALY":267.4342,"EPHEMERIS_TYPE":0,"CLASSIFICATION_TYPE":"U","NORAD_CAT_ID":51639,"ELEMENT_SET_NO":999,"REV_AT_EPOCH":18080,"BSTAR":0.0018935715,"MEAN_MOTION_DOT":6.74e-6,"MEAN_MOTION_DDOT":0},{"OBJECT_NAME":"ONEWEB-0446","OBJECT_ID":"2022-012U","EPOCH":"2025-11-11T07:44:45.515328","MEAN_MOTION":13.10377747,"ECCENTRICITY":0.0001577,"INCLINATION":87.8797,"RA_OF_ASC_NODE":79.7198,"ARG_OF_PERICENTER":90.6917,"MEAN_ANOMALY":269.4391,"EPHEMERIS_TYPE":0,"CLASSIFICATION_TYPE":"U","NORAD_CAT_ID":51640,"ELEMENT_SET_NO":999,"REV_AT_EPOCH":18079,"BSTAR":0.0005777663,"MEAN_MOTION_DOT":2.14e-6,"MEAN_MOTION_DDOT":0},{"OBJECT_NAME":"ONEWEB-0448","OBJECT_ID":"2022-012V","EPOCH":"2025-11-11T06:01:58.938240","MEAN_MOTION":13.10376747,"ECCENTRICITY":0.00016359,"INCLINATION":87.8792,"RA_OF_ASC_NODE":79.7336,"ARG_OF_PERICENTER":102.2049,"MEAN_ANOMALY":257.9262,"EPHEMERIS_TYPE":0,"CLASSIFICATION_TYPE":"U","NORAD_CAT_ID":51641,"ELEMENT_SET_NO":999,"REV_AT_EPOCH":18075,"BSTAR":0.0011602286,"MEAN_MOTION_DOT":4.18e-6,"MEAN_MOTION_DDOT":0},{"OBJECT_NAME":"ONEWEB-0449","OBJECT_ID":"2022-012W","EPOCH":"2025-11-11T06:09:09.538560","MEAN_MOTION":13.10375883,"ECCENTRICITY":0.00011082,"INCLINATION":87.8801,"RA_OF_ASC_NODE":79.7029,"ARG_OF_PERICENTER":105.6864,"MEAN_ANOMALY":254.4386,"EPHEMERIS_TYPE":0,"CLASSIFICATION_TYPE":"U","NORAD_CAT_ID":51642,"ELEMENT_SET_NO":999,"REV_AT_EPOCH":18076,"BSTAR":0.0017835674,"MEAN_MOTION_DOT":6.35e-6,"MEAN_MOTION_DDOT":0},{"OBJECT_NAME":"ONEWEB-0451","OBJECT_ID":"2022-012X","EPOCH":"2025-11-11T06:31:43.363488","MEAN_MOTION":13.17650835,"ECCENTRICITY":0.00016509,"INCLINATION":87.9145,"RA_OF_ASC_NODE":49.1614,"ARG_OF_PERICENTER":103.3925,"MEAN_ANOMALY":256.7391,"EPHEMERIS_TYPE":0,"CLASSIFICATION_TYPE":"U","NORAD_CAT_ID":51643,"ELEMENT_SET_NO":999,"REV_AT_EPOCH":18496,"BSTAR":0.0007811929,"MEAN_MOTION_DOT":3.16e-6,"MEAN_MOTION_DDOT":0},{"OBJECT_NAME":"ONEWEB-0452","OBJECT_ID":"2022-012Y","EPOCH":"2025-11-11T06:29:18.170880","MEAN_MOTION":13.17650672,"ECCENTRICITY":0.00015222,"INCLINATION":87.9133,"RA_OF_ASC_NODE":49.2191,"ARG_OF_PERICENTER":111.1757,"MEAN_ANOMALY":248.9538,"EPHEMERIS_TYPE":0,"CLASSIFICATION_TYPE":"U","NORAD_CAT_ID":51644,"ELEMENT_SET_NO":999,"REV_AT_EPOCH":18497,"BSTAR":0.00027233634,"MEAN_MOTION_DOT":1.19e-6,"MEAN_MOTION_DDOT":0},{"OBJECT_NAME":"ONEWEB-0456","OBJECT_ID":"2022-012AA","EPOCH":"2025-11-11T06:23:30.138720","MEAN_MOTION":13.10372948,"ECCENTRICITY":0.00017688,"INCLINATION":87.8805,"RA_OF_ASC_NODE":79.668,"ARG_OF_PERICENTER":102.4717,"MEAN_ANOMALY":257.6609,"EPHEMERIS_TYPE":0,"CLASSIFICATION_TYPE":"U","NORAD_CAT_ID":51646,"ELEMENT_SET_NO":999,"REV_AT_EPOCH":18080,"BSTAR":0.0019625082,"MEAN_MOTION_DOT":6.98e-6,"MEAN_MOTION_DDOT":0},{"OBJECT_NAME":"ONEWEB-0457","OBJECT_ID":"2022-012AB","EPOCH":"2025-11-11T07:39:58.285440","MEAN_MOTION":13.1037733,"ECCENTRICITY":0.00012032,"INCLINATION":87.8795,"RA_OF_ASC_NODE":79.7081,"ARG_OF_PERICENTER":89.5592,"MEAN_ANOMALY":270.5674,"EPHEMERIS_TYPE":0,"CLASSIFICATION_TYPE":"U","NORAD_CAT_ID":51647,"ELEMENT_SET_NO":999,"REV_AT_EPOCH":18081,"BSTAR":-1.7673313e-5,"MEAN_MOTION_DOT":6.0e-8,"MEAN_MOTION_DDOT":0}]
