ONEWEB-0431             
1 51630U 22012J   25315.28609157 -.00000123  00000+0 -38922-3 0  9990
2 51630  87.8799  79.6934 0002143  90.8104 269.3269 13.10370629180801
ONEWEB-0434             
1 51631U 22012K   25315.11028691  .00000735  00000+0  20686-2 0  9995
2 51631  87.8792  79.7667 0000969 111.1598 248.9633 13.10373753180761
ONEWEB-0435             
1 51632U 22012L   25315.27129874  .00000701  00000+0  19719-2 0  9996
2 51632  87.8792  79.7251 0001902 108.4056 251.7278 13.10372594180777
ONEWEB-0436             
1 51633U 22012M   25315.27539739  .00000103  00000+0  23147-3 0  9999
2 51633  87.9137  49.1656 0001926 102.3433 257.7915 13.17649373184980
ONEWEB-0438             
1 51634U 22012N   25315.25470188  .00000600  00000+0  16829-2 0  9990
2 51634  87.8797  79.7291 0001374 100.4021 259.7262 13.10376121180800
ONEWEB-0439             
1 51635U 22012P   25315.25802390  .00000665  00000+0  18699-2 0  9993
2 51635  87.8791  79.7173 0001624 101.6731 258.4579 13.10375057180784
ONEWEB-0442             
1 51636U 22012Q   25315.26781141  .00000076  00000+0  16361-3 0  9996
2 51636  87.9132  49.2179 0001138  92.1370 267.9891 13.17650849184975
ONEWEB-0443             
1 51637U 22012R   25315.28721825  .00000101  00000+0  22777-3 0  9999
2 51637  87.9128  49.2198 0001513 111.4357 248.6936 13.17651455185026
ONEWEB-0444             
1 51638U 22012S   25315.32441969  .00000370  00000+0  10226-2 0  9996
2 51638  87.8793  79.7028 0001573 100.9882 259.1423 13.10376275180802
ONEWEB-0445             
1 51639U 22012T   25315.26964973  .00000674  00000+0  18936-2 0  9998
2 51639  87.8804  79.6761 0001513  92.6959 267.4342 13.10371382180801
ONEWEB-0446             
1 51640U 22012U   25315.32274902  .00000214  00000+0  57777-3 0  9990
2 51640  87.8797  79.7198 0001577  90.6917 269.4391 13.10377747180796
ONEWEB-0448             
1 51641U 22012V   25315.25137660  .00000418  00000+0  11602-2 0  9994
2 51641  87.8792  79.7336 0001635 102.2049 257.9262 13.10376747180751
ONEWEB-0449             
1 51642U 22012W   25315.25636040  .00000635  00000+0  17836-2 0  9997
2 51642  87.8801  79.7029 0001108 105.6864 254.4386 13.10375883180769
ONEWEB-0451             
1 51643U 22012X   25315.27202967  .00000316  00000+0  78119-3 0  9995
2 51643  87.9145  49.1614 0001650 103.3925 256.7391 13.17650835184965
ONEWEB-0452             
1 51644U 22012Y   25315.27034920  .00000119  00000+0  27234-3 0  9991
2 51644  87.9133  49.2191 0001522 111.1757 248.9538 13.17650672184978
ONEWEB-0456             
1 51646U 22012AA  25315.26632105  .00000698  00000+0  19625-2 0  9997
2 51646  87.8805  79.6680 0001768 102.4717 257.6609 13.10372948180800
ONEWEB-0457             
1 51647U 22012AB  25315.31942460  .00000006  00000+0 -17673-4 0  9999
2 51647  87.8795  79.7081 0001203  89.5592 270.5674 13.10377330180812
